CCSDS_OMM_VERS = 2.0
CREATION_DATE  = 
ORIGINATOR     = 

OBJECT_NAME    = ATLAS CENTAUR R/B
OBJECT_ID      = 1972-065B
CENTER_NAME    = EARTH
REF_FRAME      = TEME
TIME_SYSTEM    = UTC
MEAN_ELEMENT_THEORY = SGP/SGP4

EPOCH          = 2026-03-10T05:37:00.240384
MEAN_MOTION    = 14.77688627
ECCENTRICITY   = .00334656
INCLINATION    = 35.0017
RA_OF_ASC_NODE = 302.5644
ARG_OF_PERICENTER = 13.4168
MEAN_ANOMALY   = 346.7416

EPHEMERIS_TYPE = 0
CLASSIFICATION_TYPE = U
NORAD_CAT_ID   = 6155
ELEMENT_SET_NO = 999
REV_AT_EPOCH   = 84134
BSTAR          = .21564493E-3
MEAN_MOTION_DOT = .156E-4
MEAN_MOTION_DDOT = 0

CCSDS_OMM_VERS = 2.0
CREATION_DATE  = 
ORIGINATOR     = 

OBJECT_NAME    = SL-8 R/B
OBJECT_ID      = 1975-112B
CENTER_NAME    = EARTH
REF_FRAME      = TEME
TIME_SYSTEM    = UTC
MEAN_ELEMENT_THEORY = SGP/SGP4

EPOCH          = 2026-03-10T06:26:15.617184
MEAN_MOTION    = 14.38204202
ECCENTRICITY   = .00144187
INCLINATION    = 74.0630
RA_OF_ASC_NODE = 17.8474
ARG_OF_PERICENTER = 110.8997
MEAN_ANOMALY   = 249.3702

EPHEMERIS_TYPE = 0
CLASSIFICATION_TYPE = U
NORAD_CAT_ID   = 8459
ELEMENT_SET_NO = 999
REV_AT_EPOCH   = 63195
BSTAR          = .11745278E-3
MEAN_MOTION_DOT = .331E-5
MEAN_MOTION_DDOT = 0

CCSDS_OMM_VERS = 2.0
CREATION_DATE  = 
ORIGINATOR     = 

OBJECT_NAME    = SL-3 R/B
OBJECT_ID      = 1977-057B
CENTER_NAME    = EARTH
REF_FRAME      = TEME
TIME_SYSTEM    = UTC
MEAN_ELEMENT_THEORY = SGP/SGP4

EPOCH          = 2026-03-10T05:41:13.185024
MEAN_MOTION    = 15.45512763
ECCENTRICITY   = .00061629
INCLINATION    = 97.5778
RA_OF_ASC_NODE = 241.1817
ARG_OF_PERICENTER = 283.0084
MEAN_ANOMALY   = 77.0476

EPHEMERIS_TYPE = 0
CLASSIFICATION_TYPE = U
NORAD_CAT_ID   = 10114
ELEMENT_SET_NO = 999
REV_AT_EPOCH   = 66841
BSTAR          = .34668145E-3
MEAN_MOTION_DOT = .16563E-3
MEAN_MOTION_DDOT = 0

CCSDS_OMM_VERS = 2.0
CREATION_DATE  = 
ORIGINATOR     = 

OBJECT_NAME    = SEASAT 1
OBJECT_ID      = 1978-064A
CENTER_NAME    = EARTH
REF_FRAME      = TEME
TIME_SYSTEM    = UTC
MEAN_ELEMENT_THEORY = SGP/SGP4

EPOCH          = 2026-03-10T02:50:52.767456
MEAN_MOTION    = 14.46160702
ECCENTRICITY   = .00023284
INCLINATION    = 108.0108
RA_OF_ASC_NODE = 126.4000
ARG_OF_PERICENTER = 285.7450
MEAN_ANOMALY   = 74.3439

EPHEMERIS_TYPE = 0
CLASSIFICATION_TYPE = U
NORAD_CAT_ID   = 10967
ELEMENT_SET_NO = 999
REV_AT_EPOCH   = 50657
BSTAR          = .12631613E-3
MEAN_MOTION_DOT = .314E-5
MEAN_MOTION_DDOT = 0

CCSDS_OMM_VERS = 2.0
CREATION_DATE  = 
ORIGINATOR     = 

OBJECT_NAME    = SL-14 R/B
OBJECT_ID      = 1979-011B
CENTER_NAME    = EARTH
REF_FRAME      = TEME
TIME_SYSTEM    = UTC
MEAN_ELEMENT_THEORY = SGP/SGP4

EPOCH          = 2026-03-10T02:48:32.774400
MEAN_MOTION    = 14.91908671
ECCENTRICITY   = .00173871
INCLINATION    = 82.5208
RA_OF_ASC_NODE = 96.1654
ARG_OF_PERICENTER = 59.2501
MEAN_ANOMALY   = 301.0428

EPHEMERIS_TYPE = 0
CLASSIFICATION_TYPE = U
NORAD_CAT_ID   = 11267
ELEMENT_SET_NO = 999
REV_AT_EPOCH   = 52884
BSTAR          = .66181748E-4
MEAN_MOTION_DOT = .697E-5
MEAN_MOTION_DDOT = 0

CCSDS_OMM_VERS = 2.0
CREATION_DATE  = 
ORIGINATOR     = 

OBJECT_NAME    = SL-8 R/B
OBJECT_ID      = 1979-089B
CENTER_NAME    = EARTH
REF_FRAME      = TEME
TIME_SYSTEM    = UTC
MEAN_ELEMENT_THEORY = SGP/SGP4

EPOCH          = 2026-03-10T05:32:40.343136
MEAN_MOTION    = 14.42351253
ECCENTRICITY   = .00171582
INCLINATION    = 74.0667
RA_OF_ASC_NODE = 90.0415
ARG_OF_PERICENTER = 262.6507
MEAN_ANOMALY   = 97.2699

EPHEMERIS_TYPE = 0
CLASSIFICATION_TYPE = U
NORAD_CAT_ID   = 11574
ELEMENT_SET_NO = 999
REV_AT_EPOCH   = 43618
BSTAR          = .11220241E-3
MEAN_MOTION_DOT = .345E-5
MEAN_MOTION_DDOT = 0

CCSDS_OMM_VERS = 2.0
CREATION_DATE  = 
ORIGINATOR     = 

OBJECT_NAME    = SL-14 R/B
OBJECT_ID      = 1980-005B
CENTER_NAME    = EARTH
REF_FRAME      = TEME
TIME_SYSTEM    = UTC
MEAN_ELEMENT_THEORY = SGP/SGP4

EPOCH          = 2026-03-10T03:07:42.222720
MEAN_MOTION    = 14.90930937
ECCENTRICITY   = .00162188
INCLINATION    = 82.5144
RA_OF_ASC_NODE = 306.8184
ARG_OF_PERICENTER = 156.8608
MEAN_ANOMALY   = 203.3345

EPHEMERIS_TYPE = 0
CLASSIFICATION_TYPE = U
NORAD_CAT_ID   = 11672
ELEMENT_SET_NO = 999
REV_AT_EPOCH   = 47655
BSTAR          = .64126665E-4
MEAN_MOTION_DOT = .659E-5
MEAN_MOTION_DDOT = 0

CCSDS_OMM_VERS = 2.0
CREATION_DATE  = 
ORIGINATOR     = 

OBJECT_NAME    = SL-8 R/B
OBJECT_ID      = 1981-003B
CENTER_NAME    = EARTH
REF_FRAME      = TEME
TIME_SYSTEM    = UTC
MEAN_ELEMENT_THEORY = SGP/SGP4

EPOCH          = 2026-03-10T01:36:27.345888
MEAN_MOTION    = 15.10990524
ECCENTRICITY   = .0262078
INCLINATION    = 82.9385
RA_OF_ASC_NODE = 289.6746
ARG_OF_PERICENTER = 177.3345
MEAN_ANOMALY   = 182.9362

EPHEMERIS_TYPE = 0
CLASSIFICATION_TYPE = U
NORAD_CAT_ID   = 12139
ELEMENT_SET_NO = 999
REV_AT_EPOCH   = 31473
BSTAR          = .55973642E-3
MEAN_MOTION_DOT = .21828E-3
MEAN_MOTION_DDOT = 0

CCSDS_OMM_VERS = 2.0
CREATION_DATE  = 
ORIGINATOR     = 

OBJECT_NAME    = SL-3 R/B
OBJECT_ID      = 1981-046B
CENTER_NAME    = EARTH
REF_FRAME      = TEME
TIME_SYSTEM    = UTC
MEAN_ELEMENT_THEORY = SGP/SGP4

EPOCH          = 2026-03-10T07:17:10.444704
MEAN_MOTION    = 15.42014699
ECCENTRICITY   = .00195019
INCLINATION    = 81.2299
RA_OF_ASC_NODE = 289.0069
ARG_OF_PERICENTER = 20.2150
MEAN_ANOMALY   = 339.9861

EPHEMERIS_TYPE = 0
CLASSIFICATION_TYPE = U
NORAD_CAT_ID   = 12465
ELEMENT_SET_NO = 999
REV_AT_EPOCH   = 43852
BSTAR          = .33728737E-3
MEAN_MOTION_DOT = .14518E-3
MEAN_MOTION_DDOT = 0

CCSDS_OMM_VERS = 2.0
CREATION_DATE  = 
ORIGINATOR     = 

OBJECT_NAME    = SL-3 R/B
OBJECT_ID      = 1981-103B
CENTER_NAME    = EARTH
REF_FRAME      = TEME
TIME_SYSTEM    = UTC
MEAN_ELEMENT_THEORY = SGP/SGP4

EPOCH          = 2026-03-10T05:35:04.019424
MEAN_MOTION    = 15.21385055
ECCENTRICITY   = .00124166
INCLINATION    = 81.1586
RA_OF_ASC_NODE = 212.7948
ARG_OF_PERICENTER = 285.0840
MEAN_ANOMALY   = 74.9017

EPHEMERIS_TYPE = 0
CLASSIFICATION_TYPE = U
NORAD_CAT_ID   = 12904
ELEMENT_SET_NO = 999
REV_AT_EPOCH   = 97331
BSTAR          = .31214713E-3
MEAN_MOTION_DOT = .7038E-4
MEAN_MOTION_DDOT = 0

CCSDS_OMM_VERS = 2.0
CREATION_DATE  = 
ORIGINATOR     = 

OBJECT_NAME    = SL-3 R/B
OBJECT_ID      = 1982-013B
CENTER_NAME    = EARTH
REF_FRAME      = TEME
TIME_SYSTEM    = UTC
MEAN_ELEMENT_THEORY = SGP/SGP4

EPOCH          = 2026-03-10T05:46:21.655488
MEAN_MOTION    = 15.22026031
ECCENTRICITY   = .00226571
INCLINATION    = 81.1762
RA_OF_ASC_NODE = 160.1251
ARG_OF_PERICENTER = 175.6990
MEAN_ANOMALY   = 184.4442

EPHEMERIS_TYPE = 0
CLASSIFICATION_TYPE = U
NORAD_CAT_ID   = 13068
ELEMENT_SET_NO = 999
REV_AT_EPOCH   = 40443
BSTAR          = .24895259E-3
MEAN_MOTION_DOT = .5753E-4
MEAN_MOTION_DDOT = 0

CCSDS_OMM_VERS = 2.0
CREATION_DATE  = 
ORIGINATOR     = 

OBJECT_NAME    = SL-3 R/B
OBJECT_ID      = 1982-039B
CENTER_NAME    = EARTH
REF_FRAME      = TEME
TIME_SYSTEM    = UTC
MEAN_ELEMENT_THEORY = SGP/SGP4

EPOCH          = 2026-03-10T06:04:33.786912
MEAN_MOTION    = 15.10086203
ECCENTRICITY   = .00297221
INCLINATION    = 81.1582
RA_OF_ASC_NODE = 215.3120
ARG_OF_PERICENTER = 322.6630
MEAN_ANOMALY   = 37.2529

EPHEMERIS_TYPE = 0
CLASSIFICATION_TYPE = U
NORAD_CAT_ID   = 13154
ELEMENT_SET_NO = 999
REV_AT_EPOCH   = 38172
BSTAR          = .21716651E-3
MEAN_MOTION_DOT = .3595E-4
MEAN_MOTION_DDOT = 0

